[{"OBJECT_NAME":"STARLINK-1733","OBJECT_ID":"2020-070AJ","EPOCH":"2026-02-20T06:00:02.000160","MEAN_MOTION":15.69502578,"ECCENTRICITY":0.00033875,"INCLINATION":53.0442,"RA_OF_ASC_NODE":193.8289,"ARG_OF_PERICENTER":184.4514,"MEAN_ANOMALY":37.1414,"EPHEMERIS_TYPE":0,"CLASSIFICATION_TYPE":"U","NORAD_CAT_ID":46564,"ELEMENT_SET_NO":999,"REV_AT_EPOCH":598,"BSTAR":0.0019729549,"MEAN_MOTION_DOT":0.00243532,"MEAN_MOTION_DDOT":0},{"OBJECT_NAME":"STARLINK-1735","OBJECT_ID":"2020-070AK","EPOCH":"2026-02-19T19:17:25.180224","MEAN_MOTION":15.57064598,"ECCENTRICITY":0.00102442,"INCLINATION":53.0454,"RA_OF_ASC_NODE":205.9358,"ARG_OF_PERICENTER":142.9132,"MEAN_ANOMALY":217.2588,"EPHEMERIS_TYPE":0,"CLASSIFICATION_TYPE":"U","NORAD_CAT_ID":46565,"ELEMENT_SET_NO":999,"REV_AT_EPOCH":29752,"BSTAR":0.0020998671,"MEAN_MOTION_DOT":0.00157615,"MEAN_MOTION_DDOT":0},{"OBJECT_NAME":"STARLINK-1741","OBJECT_ID":"2020-070AM","EPOCH":"2026-02-20T06:00:02.000160","MEAN_MOTION":15.58509756,"ECCENTRICITY":0.00079396,"INCLINATION":53.0437,"RA_OF_ASC_NODE":202.845,"ARG_OF_PERICENTER":142.0474,"MEAN_ANOMALY":230.9696,"EPHEMERIS_TYPE":0,"CLASSIFICATION_TYPE":"U","NORAD_CAT_ID":46567,"ELEMENT_SET_NO":999,"REV_AT_EPOCH":596,"BSTAR":0.0024009523,"MEAN_MOTION_DOT":0.00190974,"MEAN_MOTION_DDOT":0},{"OBJECT_NAME":"STARLINK-1531","OBJECT_ID":"2020-070AS","EPOCH":"2026-02-20T06:00:02.000160","MEAN_MOTION":15.58306355,"ECCENTRICITY":0.00129721,"INCLINATION":53.0563,"RA_OF_ASC_NODE":224.5707,"ARG_OF_PERICENTER":175.7043,"MEAN_ANOMALY":189.635,"EPHEMERIS_TYPE":0,"CLASSIFICATION_TYPE":"U","NORAD_CAT_ID":46572,"ELEMENT_SET_NO":999,"REV_AT_EPOCH":587,"BSTAR":0.0023747514,"MEAN_MOTION_DOT":0.00187778,"MEAN_MOTION_DDOT":0},{"OBJECT_NAME":"STARLINK-1677","OBJECT_ID":"2020-070AW","EPOCH":"2026-02-19T14:53:14.656992","MEAN_MOTION":15.5560545,"ECCENTRICITY":0.00066122,"INCLINATION":53.0417,"RA_OF_ASC_NODE":212.3934,"ARG_OF_PERICENTER":141.521,"MEAN_ANOMALY":218.6273,"EPHEMERIS_TYPE":0,"CLASSIFICATION_TYPE":"U","NORAD_CAT_ID":46576,"ELEMENT_SET_NO":999,"REV_AT_EPOCH":29742,"BSTAR":0.00099378683,"MEAN_MOTION_DOT":0.00069536,"MEAN_MOTION_DDOT":0},{"OBJECT_NAME":"STARLINK-1683","OBJECT_ID":"2020-070AY","EPOCH":"2026-02-20T06:00:02.000160","MEAN_MOTION":15.74588534,"ECCENTRICITY":0.00072888,"INCLINATION":53.0132,"RA_OF_ASC_NODE":158.7183,"ARG_OF_PERICENTER":299.4781,"MEAN_ANOMALY":166.24,"EPHEMERIS_TYPE":0,"CLASSIFICATION_TYPE":"U","NORAD_CAT_ID":46578,"ELEMENT_SET_NO":999,"REV_AT_EPOCH":600,"BSTAR":0.0017139782,"MEAN_MOTION_DOT":0.00263217,"MEAN_MOTION_DDOT":0},{"OBJECT_NAME":"STARLINK-1712","OBJECT_ID":"2020-070BB","EPOCH":"2026-02-20T06:00:02.000160","MEAN_MOTION":15.86610064,"ECCENTRICITY":0.00067483,"INCLINATION":53.0346,"RA_OF_ASC_NODE":169.571,"ARG_OF_PERICENTER":261.7091,"MEAN_ANOMALY":214.1121,"EPHEMERIS_TYPE":0,"CLASSIFICATION_TYPE":"U","NORAD_CAT_ID":46581,"ELEMENT_SET_NO":999,"REV_AT_EPOCH":435,"BSTAR":0.0016997269,"MEAN_MOTION_DOT":0.00464204,"MEAN_MOTION_DDOT":0},{"OBJECT_NAME":"STARLINK-1728","OBJECT_ID":"2020-070BC","EPOCH":"2026-02-19T20:54:13.775328","MEAN_MOTION":15.48794403,"ECCENTRICITY":0.0007956,"INCLINATION":53.0435,"RA_OF_ASC_NODE":211.0061,"ARG_OF_PERICENTER":143.9742,"MEAN_ANOMALY":216.1803,"EPHEMERIS_TYPE":0,"CLASSIFICATION_TYPE":"U","NORAD_CAT_ID":46582,"ELEMENT_SET_NO":999,"REV_AT_EPOCH":29746,"BSTAR":0.0016773,"MEAN_MOTION_DOT":0.00092362,"MEAN_MOTION_DDOT":0},{"OBJECT_NAME":"STARLINK-1736","OBJECT_ID":"2020-070BF","EPOCH":"2026-02-20T06:00:02.000160","MEAN_MOTION":15.62398626,"ECCENTRICITY":0.00046384,"INCLINATION":53.0442,"RA_OF_ASC_NODE":201.5419,"ARG_OF_PERICENTER":142.7996,"MEAN_ANOMALY":292.4628,"EPHEMERIS_TYPE":0,"CLASSIFICATION_TYPE":"U","NORAD_CAT_ID":46585,"ELEMENT_SET_NO":999,"REV_AT_EPOCH":598,"BSTAR":0.001790039,"MEAN_MOTION_DOT":0.00164483,"MEAN_MOTION_DDOT":0},{"OBJECT_NAME":"STARLINK-1746","OBJECT_ID":"2020-070BJ","EPOCH":"2026-02-20T06:00:02.000160","MEAN_MOTION":15.67880073,"ECCENTRICITY":0.00043376,"INCLINATION":53.0426,"RA_OF_ASC_NODE":201.249,"ARG_OF_PERICENTER":138.6025,"MEAN_ANOMALY":254.999,"EPHEMERIS_TYPE":0,"CLASSIFICATION_TYPE":"U","NORAD_CAT_ID":46588,"ELEMENT_SET_NO":999,"REV_AT_EPOCH":596,"BSTAR":0.0020769457,"MEAN_MOTION_DOT":0.00239782,"MEAN_MOTION_DDOT":0},{"OBJECT_NAME":"STARLINK-1716","OBJECT_ID":"2020-073C","EPOCH":"2026-02-20T01:53:52.192320","MEAN_MOTION":15.59259047,"ECCENTRICITY":0.00012919,"INCLINATION":53.047,"RA_OF_ASC_NODE":287.1436,"ARG_OF_PERICENTER":227.4219,"MEAN_ANOMALY":132.6684,"EPHEMERIS_TYPE":0,"CLASSIFICATION_TYPE":"U","NORAD_CAT_ID":46672,"ELEMENT_SET_NO":999,"REV_AT_EPOCH":29495,"BSTAR":0.0015135211,"MEAN_MOTION_DOT":0.00122474,"MEAN_MOTION_DDOT":0},{"OBJECT_NAME":"STARLINK-1718","OBJECT_ID":"2020-073E","EPOCH":"2026-02-20T06:10:48.906336","MEAN_MOTION":15.51347615,"ECCENTRICITY":0.00035258,"INCLINATION":53.0537,"RA_OF_ASC_NODE":312.0112,"ARG_OF_PERICENTER":146.3353,"MEAN_ANOMALY":213.788,"EPHEMERIS_TYPE":0,"CLASSIFICATION_TYPE":"U","NORAD_CAT_ID":46674,"ELEMENT_SET_NO":999,"REV_AT_EPOCH":29461,"BSTAR":0.0013052494,"MEAN_MOTION_DOT":0.00078378,"MEAN_MOTION_DDOT":0},{"OBJECT_NAME":"STARLINK-1775","OBJECT_ID":"2020-073M","EPOCH":"2026-02-20T06:00:02.000160","MEAN_MOTION":15.71804332,"ECCENTRICITY":0.00065114,"INCLINATION":53.0459,"RA_OF_ASC_NODE":297.2361,"ARG_OF_PERICENTER":98.7856,"MEAN_ANOMALY":14.8736,"EPHEMERIS_TYPE":0,"CLASSIFICATION_TYPE":"U","NORAD_CAT_ID":46681,"ELEMENT_SET_NO":999,"REV_AT_EPOCH":599,"BSTAR":0.0013394103,"MEAN_MOTION_DOT":0.001806,"MEAN_MOTION_DDOT":0},{"OBJECT_NAME":"STARLINK-1781","OBJECT_ID":"2020-073R","EPOCH":"2026-02-20T06:22:37.654176","MEAN_MOTION":15.51684395,"ECCENTRICITY":0.00020324,"INCLINATION":53.055,"RA_OF_ASC_NODE":327.3367,"ARG_OF_PERICENTER":140.0098,"MEAN_ANOMALY":220.106,"EPHEMERIS_TYPE":0,"CLASSIFICATION_TYPE":"U","NORAD_CAT_ID":46685,"ELEMENT_SET_NO":999,"REV_AT_EPOCH":29439,"BSTAR":0.001278154,"MEAN_MOTION_DOT":0.00077658,"MEAN_MOTION_DDOT":0},{"OBJECT_NAME":"STARLINK-1784","OBJECT_ID":"2020-073T","EPOCH":"2026-02-19T22:42:02.917440","MEAN_MOTION":15.5703575,"ECCENTRICITY":0.00068017,"INCLINATION":53.0469,"RA_OF_ASC_NODE":273.0646,"ARG_OF_PERICENTER":158.5224,"MEAN_ANOMALY":201.6074,"EPHEMERIS_TYPE":0,"CLASSIFICATION_TYPE":"U","NORAD_CAT_ID":46687,"ELEMENT_SET_NO":999,"REV_AT_EPOCH":29513,"BSTAR":0.0015521985,"MEAN_MOTION_DOT":0.00115504,"MEAN_MOTION_DDOT":0},{"OBJECT_NAME":"STARLINK-1788","OBJECT_ID":"2020-073V","EPOCH":"2026-02-20T01:46:26.703552","MEAN_MOTION":15.57556566,"ECCENTRICITY":0.00050318,"INCLINATION":53.0462,"RA_OF_ASC_NODE":304.2826,"ARG_OF_PERICENTER":85.8106,"MEAN_ANOMALY":274.348,"EPHEMERIS_TYPE":0,"CLASSIFICATION_TYPE":"U","NORAD_CAT_ID":46689,"ELEMENT_SET_NO":999,"REV_AT_EPOCH":29595,"BSTAR":0.0016804093,"MEAN_MOTION_DOT":0.00127692,"MEAN_MOTION_DDOT":0}]
