STARLINK-1733           
1 46564U 20070AJ  26051.25002315  .00243532  00000+0  19730-2 0  9996
2 46564  53.0442 193.8289 0003387 184.4514  37.1414 15.69502578  5983
STARLINK-1735           
1 46565U 20070AK  26050.80376366  .00157615  00000+0  20999-2 0  9992
2 46565  53.0454 205.9358 0010244 142.9132 217.2588 15.57064598297522
STARLINK-1741           
1 46567U 20070AM  26051.25002315  .00190974  00000+0  24010-2 0  9997
2 46567  53.0437 202.8450 0007939 142.0474 230.9696 15.58509756  5969
STARLINK-1531           
1 46572U 20070AS  26051.25002315  .00187778  00000+0  23748-2 0  9998
2 46572  53.0563 224.5707 0012972 175.7043 189.6350 15.58306355  5876
STARLINK-1677           
1 46576U 20070AW  26050.62030853  .00069536  00000+0  99379-3 0  9995
2 46576  53.0417 212.3934 0006612 141.5210 218.6273 15.55605450297422
STARLINK-1683           
1 46578U 20070AY  26051.25002315  .00263217  00000+0  17140-2 0  9996
2 46578  53.0132 158.7183 0007288 299.4781 166.2400 15.74588534  6009
STARLINK-1712           
1 46581U 20070BB  26051.25002315  .00464204  00000+0  16997-2 0  9998
2 46581  53.0346 169.5710 0006748 261.7091 214.1121 15.86610064  4358
STARLINK-1728           
1 46582U 20070BC  26050.87099277  .00092362  00000+0  16773-2 0  9993
2 46582  53.0435 211.0061 0007956 143.9742 216.1803 15.48794403297469
STARLINK-1736           
1 46585U 20070BF  26051.25002315  .00164483  00000+0  17900-2 0  9993
2 46585  53.0442 201.5419 0004638 142.7996 292.4628 15.62398626  5982
STARLINK-1746           
1 46588U 20070BJ  26051.25002315  .00239782  00000+0  20769-2 0  9998
2 46588  53.0426 201.2490 0004337 138.6025 254.9990 15.67880073  5966
STARLINK-1716           
1 46672U 20073C   26051.07907630  .00122474  00000+0  15135-2 0  9999
2 46672  53.0470 287.1436 0001291 227.4219 132.6684 15.59259047294953
STARLINK-1718           
1 46674U 20073E   26051.25751049  .00078378  00000+0  13052-2 0  9991
2 46674  53.0537 312.0112 0003525 146.3353 213.7880 15.51347615294611
STARLINK-1775           
1 46681U 20073M   26051.25002315  .00180600  00000+0  13394-2 0  9995
2 46681  53.0459 297.2361 0006511  98.7856  14.8736 15.71804332  5995
STARLINK-1781           
1 46685U 20073R   26051.26571359  .00077658  00000+0  12782-2 0  9997
2 46685  53.0550 327.3367 0002032 140.0098 220.1060 15.51684395294394
STARLINK-1784           
1 46687U 20073T   26050.94586710  .00115504  00000+0  15522-2 0  9998
2 46687  53.0469 273.0646 0006801 158.5224 201.6074 15.57035750295138
STARLINK-1788           
1 46689U 20073V   26051.07392018  .00127692  00000+0  16804-2 0  9996
2 46689  53.0462 304.2826 0005031  85.8106 274.3480 15.57556566295956
